[{"OBJECT_NAME":"FLOCK 4G-23","OBJECT_ID":"2025-009AQ","EPOCH":"2026-04-26T17:21:52.676640","MEAN_MOTION":15.2877804,"ECCENTRICITY":0.0002688,"INCLINATION":97.3943,"RA_OF_ASC_NODE":198.5867,"ARG_OF_PERICENTER":136.5846,"MEAN_ANOMALY":223.5606,"EPHEMERIS_TYPE":0,"CLASSIFICATION_TYPE":"U","NORAD_CAT_ID":62647,"ELEMENT_SET_NO":999,"REV_AT_EPOCH":7105,"BSTAR":0.0016245759,"MEAN_MOTION_DOT":0.00045598,"MEAN_MOTION_DDOT":0},{"OBJECT_NAME":"FLOCK 4G-34","OBJECT_ID":"2025-009AT","EPOCH":"2026-04-26T19:24:13.950720","MEAN_MOTION":15.28229762,"ECCENTRICITY":0.00034283,"INCLINATION":97.3969,"RA_OF_ASC_NODE":198.7266,"ARG_OF_PERICENTER":120.6865,"MEAN_ANOMALY":239.4713,"EPHEMERIS_TYPE":0,"CLASSIFICATION_TYPE":"U","NORAD_CAT_ID":62650,"ELEMENT_SET_NO":999,"REV_AT_EPOCH":7106,"BSTAR":0.00041872039,"MEAN_MOTION_DOT":0.00011451,"MEAN_MOTION_DDOT":0},{"OBJECT_NAME":"FLOCK 4G-21","OBJECT_ID":"2025-009AU","EPOCH":"2026-04-26T21:14:45.028032","MEAN_MOTION":15.29558423,"ECCENTRICITY":0.00032483,"INCLINATION":97.3996,"RA_OF_ASC_NODE":199.5623,"ARG_OF_PERICENTER":122.1046,"MEAN_ANOMALY":238.051,"EPHEMERIS_TYPE":0,"CLASSIFICATION_TYPE":"U","NORAD_CAT_ID":62651,"ELEMENT_SET_NO":999,"REV_AT_EPOCH":7111,"BSTAR":0.00043827669,"MEAN_MOTION_DOT":0.0001249,"MEAN_MOTION_DDOT":0},{"OBJECT_NAME":"FLOCK 4G-31","OBJECT_ID":"2025-009AV","EPOCH":"2026-04-26T18:18:52.511328","MEAN_MOTION":15.28067222,"ECCENTRICITY":0.00030391,"INCLINATION":97.3973,"RA_OF_ASC_NODE":198.6706,"ARG_OF_PERICENTER":123.3759,"MEAN_ANOMALY":236.7771,"EPHEMERIS_TYPE":0,"CLASSIFICATION_TYPE":"U","NORAD_CAT_ID":62652,"ELEMENT_SET_NO":999,"REV_AT_EPOCH":7105,"BSTAR":0.00050285843,"MEAN_MOTION_DOT":0.00013703,"MEAN_MOTION_DDOT":0},{"OBJECT_NAME":"FLOCK 4G-4","OBJECT_ID":"2025-009BC","EPOCH":"2026-04-26T18:37:04.946016","MEAN_MOTION":15.27829378,"ECCENTRICITY":0.00038716,"INCLINATION":97.3956,"RA_OF_ASC_NODE":198.422,"ARG_OF_PERICENTER":130.0207,"MEAN_ANOMALY":230.1373,"EPHEMERIS_TYPE":0,"CLASSIFICATION_TYPE":"U","NORAD_CAT_ID":62659,"ELEMENT_SET_NO":999,"REV_AT_EPOCH":12865,"BSTAR":0.00046629184,"MEAN_MOTION_DOT":0.00012608,"MEAN_MOTION_DDOT":0},{"OBJECT_NAME":"FLOCK 4G-6","OBJECT_ID":"2025-009BD","EPOCH":"2026-04-26T18:37:51.084480","MEAN_MOTION":15.28584854,"ECCENTRICITY":0.00046471,"INCLINATION":97.3947,"RA_OF_ASC_NODE":198.5079,"ARG_OF_PERICENTER":139.9403,"MEAN_ANOMALY":220.218,"EPHEMERIS_TYPE":0,"CLASSIFICATION_TYPE":"U","NORAD_CAT_ID":62660,"ELEMENT_SET_NO":999,"REV_AT_EPOCH":12864,"BSTAR":0.00045687379,"MEAN_MOTION_DOT":0.00012642,"MEAN_MOTION_DDOT":0},{"OBJECT_NAME":"FLOCK 4G-2","OBJECT_ID":"2025-009BE","EPOCH":"2026-04-26T18:51:10.337184","MEAN_MOTION":15.2883553,"ECCENTRICITY":0.00054438,"INCLINATION":97.4012,"RA_OF_ASC_NODE":199.053,"ARG_OF_PERICENTER":136.8553,"MEAN_ANOMALY":223.3114,"EPHEMERIS_TYPE":0,"CLASSIFICATION_TYPE":"U","NORAD_CAT_ID":62661,"ELEMENT_SET_NO":999,"REV_AT_EPOCH":12867,"BSTAR":0.00049029788,"MEAN_MOTION_DOT":0.0001368,"MEAN_MOTION_DDOT":0},{"OBJECT_NAME":"FLOCK 4G-5","OBJECT_ID":"2025-009BG","EPOCH":"2026-04-26T17:58:34.375872","MEAN_MOTION":15.29594399,"ECCENTRICITY":0.00048415,"INCLINATION":97.4026,"RA_OF_ASC_NODE":199.319,"ARG_OF_PERICENTER":122.506,"MEAN_ANOMALY":237.6649,"EPHEMERIS_TYPE":0,"CLASSIFICATION_TYPE":"U","NORAD_CAT_ID":62663,"ELEMENT_SET_NO":999,"REV_AT_EPOCH":7107,"BSTAR":0.00040876411,"MEAN_MOTION_DOT":0.00011657,"MEAN_MOTION_DDOT":0},{"OBJECT_NAME":"FLOCK 4G-1","OBJECT_ID":"2025-009BK","EPOCH":"2026-04-26T18:14:36.515904","MEAN_MOTION":15.28578688,"ECCENTRICITY":0.00056796,"INCLINATION":97.4026,"RA_OF_ASC_NODE":199.015,"ARG_OF_PERICENTER":135.666,"MEAN_ANOMALY":224.5036,"EPHEMERIS_TYPE":0,"CLASSIFICATION_TYPE":"U","NORAD_CAT_ID":62666,"ELEMENT_SET_NO":999,"REV_AT_EPOCH":7105,"BSTAR":0.00051202813,"MEAN_MOTION_DOT":0.00014179,"MEAN_MOTION_DDOT":0},{"OBJECT_NAME":"FLOCK 4G-14","OBJECT_ID":"2025-009BL","EPOCH":"2026-04-26T18:27:57.090528","MEAN_MOTION":15.28205986,"ECCENTRICITY":0.00058867,"INCLINATION":97.4026,"RA_OF_ASC_NODE":198.87,"ARG_OF_PERICENTER":130.7744,"MEAN_ANOMALY":229.4007,"EPHEMERIS_TYPE":0,"CLASSIFICATION_TYPE":"U","NORAD_CAT_ID":62667,"ELEMENT_SET_NO":999,"REV_AT_EPOCH":7104,"BSTAR":0.00051916837,"MEAN_MOTION_DOT":0.00014215,"MEAN_MOTION_DDOT":0},{"OBJECT_NAME":"FLOCK 4G-10","OBJECT_ID":"2025-009BP","EPOCH":"2026-04-26T18:48:58.835520","MEAN_MOTION":15.28240693,"ECCENTRICITY":0.00056925,"INCLINATION":97.3931,"RA_OF_ASC_NODE":198.2785,"ARG_OF_PERICENTER":144.4304,"MEAN_ANOMALY":215.7316,"EPHEMERIS_TYPE":0,"CLASSIFICATION_TYPE":"U","NORAD_CAT_ID":62670,"ELEMENT_SET_NO":999,"REV_AT_EPOCH":12868,"BSTAR":0.00044092163,"MEAN_MOTION_DOT":0.00012071,"MEAN_MOTION_DDOT":0},{"OBJECT_NAME":"FLOCK 4G-36","OBJECT_ID":"2025-009BU","EPOCH":"2026-04-26T18:43:35.272704","MEAN_MOTION":15.28343096,"ECCENTRICITY":0.00060909,"INCLINATION":97.4016,"RA_OF_ASC_NODE":198.8011,"ARG_OF_PERICENTER":134.7943,"MEAN_ANOMALY":225.3793,"EPHEMERIS_TYPE":0,"CLASSIFICATION_TYPE":"U","NORAD_CAT_ID":62675,"ELEMENT_SET_NO":999,"REV_AT_EPOCH":7104,"BSTAR":0.000474444,"MEAN_MOTION_DOT":0.00013037,"MEAN_MOTION_DDOT":0},{"OBJECT_NAME":"FLOCK 4G-15","OBJECT_ID":"2025-009BX","EPOCH":"2026-04-26T18:57:28.442592","MEAN_MOTION":15.28356912,"ECCENTRICITY":0.00062459,"INCLINATION":97.4019,"RA_OF_ASC_NODE":198.9447,"ARG_OF_PERICENTER":132.0277,"MEAN_ANOMALY":228.1495,"EPHEMERIS_TYPE":0,"CLASSIFICATION_TYPE":"U","NORAD_CAT_ID":62678,"ELEMENT_SET_NO":999,"REV_AT_EPOCH":12869,"BSTAR":0.0004862674,"MEAN_MOTION_DOT":0.00013371,"MEAN_MOTION_DDOT":0},{"OBJECT_NAME":"FLOCK 4G-30","OBJECT_ID":"2025-009BY","EPOCH":"2026-04-26T17:09:31.359456","MEAN_MOTION":15.28610033,"ECCENTRICITY":0.00054491,"INCLINATION":97.3931,"RA_OF_ASC_NODE":198.2324,"ARG_OF_PERICENTER":148.6481,"MEAN_ANOMALY":211.5084,"EPHEMERIS_TYPE":0,"CLASSIFICATION_TYPE":"U","NORAD_CAT_ID":62679,"ELEMENT_SET_NO":999,"REV_AT_EPOCH":12867,"BSTAR":0.0016633327,"MEAN_MOTION_DOT":0.00046468,"MEAN_MOTION_DDOT":0},{"OBJECT_NAME":"FLOCK 4G-18","OBJECT_ID":"2025-009BZ","EPOCH":"2026-04-26T17:20:00.296160","MEAN_MOTION":15.28328066,"ECCENTRICITY":0.00065149,"INCLINATION":97.4017,"RA_OF_ASC_NODE":198.7062,"ARG_OF_PERICENTER":142.5815,"MEAN_ANOMALY":217.588,"EPHEMERIS_TYPE":0,"CLASSIFICATION_TYPE":"U","NORAD_CAT_ID":62680,"ELEMENT_SET_NO":999,"REV_AT_EPOCH":12867,"BSTAR":0.00047498519,"MEAN_MOTION_DOT":0.00013047,"MEAN_MOTION_DDOT":0},{"OBJECT_NAME":"FLOCK 4G-17","OBJECT_ID":"2025-009CA","EPOCH":"2026-04-26T18:13:29.498016","MEAN_MOTION":15.28491628,"ECCENTRICITY":0.00058751,"INCLINATION":97.393,"RA_OF_ASC_NODE":198.4625,"ARG_OF_PERICENTER":145.4859,"MEAN_ANOMALY":214.6763,"EPHEMERIS_TYPE":0,"CLASSIFICATION_TYPE":"U","NORAD_CAT_ID":62681,"ELEMENT_SET_NO":999,"REV_AT_EPOCH":12869,"BSTAR":0.00051182796,"MEAN_MOTION_DOT":0.00014136,"MEAN_MOTION_DDOT":0}]
