FLOCK 4G-23             
1 62647U 25009AQ  26116.72352635  .00045598  00000+0  16246-2 0  9991
2 62647  97.3943 198.5867 0002688 136.5846 223.5606 15.28778040 71052
FLOCK 4G-34             
1 62650U 25009AT  26116.80849480  .00011451  00000+0  41872-3 0  9998
2 62650  97.3969 198.7266 0003428 120.6865 239.4713 15.28229762 71065
FLOCK 4G-21             
1 62651U 25009AU  26116.88524338  .00012490  00000+0  43828-3 0  9996
2 62651  97.3996 199.5623 0003248 122.1046 238.0510 15.29558423 71116
FLOCK 4G-31             
1 62652U 25009AV  26116.76310777  .00013703  00000+0  50286-3 0  9998
2 62652  97.3973 198.6706 0003039 123.3759 236.7771 15.28067222 71054
FLOCK 4G-4              
1 62659U 25009BC  26116.77575169  .00012608  00000+0  46629-3 0  9993
2 62659  97.3956 198.4220 0003871 130.0207 230.1373 15.27829378128650
FLOCK 4G-6              
1 62660U 25009BD  26116.77628570  .00012642  00000+0  45687-3 0  9991
2 62660  97.3947 198.5079 0004647 139.9403 220.2180 15.28584854128646
FLOCK 4G-2              
1 62661U 25009BE  26116.78553631  .00013680  00000+0  49030-3 0  9997
2 62661  97.4012 199.0530 0005443 136.8553 223.3114 15.28835530128670
FLOCK 4G-5              
1 62663U 25009BG  26116.74900898  .00011657  00000+0  40876-3 0  9997
2 62663  97.4026 199.3190 0004841 122.5060 237.6649 15.29594399 71076
FLOCK 4G-1              
1 62666U 25009BK  26116.76014486  .00014179  00000+0  51203-3 0  9999
2 62666  97.4026 199.0150 0005679 135.6660 224.5036 15.28578688 71058
FLOCK 4G-14             
1 62667U 25009BL  26116.76941077  .00014215  00000+0  51917-3 0  9998
2 62667  97.4026 198.8700 0005886 130.7744 229.4007 15.28205986 71045
FLOCK 4G-10             
1 62670U 25009BP  26116.78401430  .00012071  00000+0  44092-3 0  9992
2 62670  97.3931 198.2785 0005692 144.4304 215.7316 15.28240693128687
FLOCK 4G-36             
1 62675U 25009BU  26116.78026936  .00013037  00000+0  47444-3 0  9998
2 62675  97.4016 198.8011 0006090 134.7943 225.3793 15.28343096 71043
FLOCK 4G-15             
1 62678U 25009BX  26116.78991253  .00013371  00000+0  48627-3 0  9999
2 62678  97.4019 198.9447 0006245 132.0277 228.1495 15.28356912128691
FLOCK 4G-30             
1 62679U 25009BY  26116.71494629  .00046468  00000+0  16633-2 0  9992
2 62679  97.3931 198.2324 0005449 148.6481 211.5084 15.28610033128671
FLOCK 4G-18             
1 62680U 25009BZ  26116.72222565  .00013047  00000+0  47499-3 0  9995
2 62680  97.4017 198.7062 0006514 142.5815 217.5880 15.28328066128673
FLOCK 4G-17             
1 62681U 25009CA  26116.75936919  .00014136  00000+0  51183-3 0  9999
2 62681  97.3930 198.4625 0005875 145.4859 214.6763 15.28491628128693
